NORAD_CAT_ID,OBJECT_NAME,OBJECT_TYPE,EPOCH,MEAN_MOTION,ECCENTRICITY,INCLINATION,RA_OF_ASC_NODE,ARG_OF_PERICENTER,MEAN_ANOMALY,BSTAR,MEAN_MOTION_DOT,MEAN_MOTION_DDOT,TLE_LINE0,TLE_LINE1,TLE_LINE2,SEMIMAJOR_AXIS,PERIOD,APOGEE,PERIGEE,DECAYED
52111.0,STARLINK-3708,PAYLOAD,2022-04-01 04:00:01,15.7329031,0.0001202,53.217,79.8759,63.4726,294.3516,-0.0007775,-0.00108755,0.0,0 STARLINK-3708,1 52111U 22029Z   22091.16668981 -.00108755  00000-0 -77750-3 0  9991,2 52111  53.2170  79.8759 0001202  63.4726 294.3516 15.73290310  3293,6727.638000000001,91.528,350.311,348.694,0.0
52111.0,STARLINK-3708,PAYLOAD,2022-04-01 14:00:01,15.73252097,0.0001113,53.2166,77.814,57.2662,141.7009,-0.00070121,-0.00098106,0.0,0 STARLINK-3708,1 52111U 22029Z   22091.58334491 -.00098106  00000-0 -70121-3 0  9996,2 52111  53.2166  77.8140 0001113  57.2662 141.7009 15.73252097  3361,6727.746999999999,91.53,350.36,348.86300000000006,0.0
52111.0,STARLINK-3708,PAYLOAD,2022-04-01 22:00:00,15.731852900000002,0.0001038,53.2169,76.163,72.247,215.6707,-0.00015732,-0.00022624,0.0,0 STARLINK-3708,1 52111U 22029Z   22091.91667824 -.00022624  00000-0 -15732-3 0  9991,2 52111  53.2169  76.1630 0001038  72.2470 215.6707 15.73185290  2916,6727.937,91.534,350.5,349.10400000000016,0.0
52111.0,STARLINK-3708,PAYLOAD,2022-04-02 04:00:00,15.7317657,0.0001062,53.2168,74.9276,64.4922,200.1066,-0.0005124,-0.00071846,0.0,0 STARLINK-3708,1 52111U 22029Z   22092.16667824 -.00071846  00000-0 -51240-3 0  9993,2 52111  53.2168  74.9276 0001062  64.4922 200.1066 15.73176570  3457,6727.962,91.535,350.541,349.112,0.0
52111.0,STARLINK-3708,PAYLOAD,2022-04-02 12:00:00,15.73139014,0.0001025,53.2167,73.2786,56.7435,296.7483,0.00069308,0.00097529,0.0,0 STARLINK-3708,1 52111U 22029Z   22092.50001157  .00097529  00000-0  69308-3 0  9990,2 52111  53.2167  73.2786 0001025  56.7435 296.7483 15.73139014  3508,6728.069,91.537,350.624,349.244,0.0
52111.0,STARLINK-3708,PAYLOAD,2022-04-02 20:00:01,15.73203173,0.0001106,53.2172,71.6271,73.5113,8.8647,-0.00025189,-0.00035824,0.0,0 STARLINK-3708,1 52111U 22029Z   22092.83334491 -.00035824  00000-0 -25189-3 0  9997,2 52111  53.2172  71.6271 0001106  73.5113   8.8647 15.73203173  3563,6727.886,91.533,350.495,349.00699999999995,0.0
52111.0,STARLINK-3708,PAYLOAD,2022-04-02 22:00:01,15.73205,0.0001207,53.2174,71.2147,77.0762,117.5944,-0.00034665,-0.00048997,0.0,0 STARLINK-3708,1 52111U 22029Z   22092.91668981 -.00048997  00000-0 -34665-3 0  9994,2 52111  53.2174  71.2147 0001207  77.0762 117.5944 15.73205000  3079,6727.880999999999,91.533,350.55800000000005,348.934,0.0
52111.0,STARLINK-3708,PAYLOAD,2022-04-03 20:00:01,15.73124743,0.0001018,53.2174,66.679,80.0416,269.0686,0.0004811,0.00067222,0.0,0 STARLINK-3708,1 52111U 22029Z   22093.83335648  .00067222  00000-0  48110-3 0  9997,2 52111  53.2174  66.6790 0001018  80.0416 269.0686 15.73124743  3712,6728.11,91.538,350.66,349.29,0.0
52111.0,STARLINK-3708,PAYLOAD,2022-04-03 22:00:00,15.73122032,0.0001008,53.2177,66.267,81.7429,19.5168,0.00071529,0.00100638,0.0,0 STARLINK-3708,1 52111U 22029Z   22093.91667824  .00100638  00000-0  71529-3 0  9999,2 52111  53.2177  66.2670 0001008  81.7429  19.5168 15.73122032  3238,6728.1169999999975,91.538,350.661,349.30400000000014,0.0
52111.0,STARLINK-3708,PAYLOAD,2022-04-04 14:00:01,15.73224145,8.52e-05,53.2175,62.9692,71.7088,207.3833,0.00023668,0.0003276,0.0,0 STARLINK-3708,1 52111U 22029Z   22094.58334491  .00032760  00000-0  23668-3 0  9995,2 52111  53.2175  62.9692 0000852  71.7088 207.3833 15.73224145  3345,6727.826,91.532,350.265,349.11800000000005,0.0
52111.0,STARLINK-3708,PAYLOAD,2022-04-04 22:00:00,15.73288682,8.71e-05,53.218,61.3188,83.0359,285.0217,7.5785e-05,0.00010069,0.0,0 STARLINK-3708,1 52111U 22029Z   22094.91667824  .00010069  00000-0  75785-4 0  9997,2 52111  53.2180  61.3188 0000871  83.0359 285.0217 15.73288682  3392,6727.642,91.528,350.093,348.921,0.0
52111.0,STARLINK-3708,PAYLOAD,2022-04-05 04:00:00,15.73307924,9.990000000000004e-05,53.218,60.0832,72.6537,272.1909,-0.00053961,-0.00076016,0.0,0 STARLINK-3708,1 52111U 22029Z   22095.16667824 -.00076016  00000-0 -53961-3 0  9992,2 52111  53.2180  60.0832 0000999  72.6537 272.1909 15.73307924  3922,6727.587,91.527,350.125,348.78,0.0
52111.0,STARLINK-3708,PAYLOAD,2022-04-05 14:00:01,15.73256593,9.65e-05,53.2179,58.0204,74.9601,111.2061,-0.0010792,-0.00149768,0.0,0 STARLINK-3708,1 52111U 22029Z   22095.58335648 -.00149768  00000-0 -10792-2 0  9993,2 52111  53.2179  58.0204 0000965  74.9601 111.2061 15.73256593  3501,6727.734,91.53,350.24800000000016,348.95,0.0
52111.0,STARLINK-3708,PAYLOAD,2022-04-05 20:00:01,15.73131221,9.43e-05,53.2178,56.7825,88.8062,74.0114,0.00050815,0.0007109,0.0,0 STARLINK-3708,1 52111U 22029Z   22095.83334491  .00071090  00000-0  50815-3 0  9997,2 52111  53.2178  56.7825 0000943  88.8062  74.0114 15.73131221  4039,6728.090999999999,91.537,350.591,349.32199999999995,0.0
52111.0,STARLINK-3708,PAYLOAD,2022-04-05 22:00:00,15.7314217,9.48e-05,53.218,56.3705,89.4998,185.5313,0.00052056,0.00072891,0.0,0 STARLINK-3708,1 52111U 22029Z   22095.91667824  .00072891  00000-0  52056-3 0  9994,2 52111  53.2180  56.3705 0000948  89.4998 185.5313 15.73142170  3555,6728.06,91.537,350.56300000000016,349.287,0.0
52111.0,STARLINK-3708,PAYLOAD,2022-04-06 04:00:00,15.73188554,0.0001072,53.2176,55.1355,77.3114,174.3715,-0.00035703,-0.00050401,0.0,0 STARLINK-3708,1 52111U 22029Z   22096.16667824 -.00050401  00000-0 -35703-3 0  9997,2 52111  53.2176  55.1355 0001072  77.3114 174.3715 15.73188554  4080,6727.928000000001,91.534,350.514,349.07199999999995,0.0
52111.0,STARLINK-3708,PAYLOAD,2022-04-06 12:00:00,15.73165429,0.0001095999999999,53.2175,53.4856,80.1154,260.4505,0.0003129,0.00043455,0.0,0 STARLINK-3708,1 52111U 22029Z   22096.50001157  .00043455  00000-0  31290-3 0  9992,2 52111  53.2175  53.4856 0001096  80.1154 260.4505 15.73165429  4134,6727.994000000002,91.535,350.596,349.121,0.0
52111.0,STARLINK-3708,PAYLOAD,2022-04-06 14:00:01,15.73173313,0.0001064,53.2177,53.0726,85.8648,6.9229,0.00035363,0.00049244,0.0,0 STARLINK-3708,1 52111U 22029Z   22096.58334491  .00049244  00000-0  35363-3 0  9997,2 52111  53.2177  53.0726 0001064  85.8648   6.9229 15.73173313  3667,6727.971,91.535,350.552,349.12,0.0
52111.0,STARLINK-3708,PAYLOAD,2022-04-06 22:00:00,15.73241059,0.0001094,53.2181,51.4226,96.1065,85.5877,0.00017487,0.00024035,0.0,0 STARLINK-3708,1 52111U 22029Z   22096.91667824  .00024035  00000-0  17487-3 0  9991,2 52111  53.2181  51.4226 0001094  96.1065  85.5877 15.73241059  3711,6727.778,91.531,350.379,348.907,0.0
52111.0,STARLINK-3708,PAYLOAD,2022-04-07 14:00:01,15.73216237,0.0001192,53.2179,48.1242,89.4712,270.1711,-0.00055629,-0.00078024,0.0,0 STARLINK-3708,1 52111U 22029Z   22097.58334491 -.00078024  00000-0 -55629-3 0  9995,2 52111  53.2179  48.1242 0001192  89.4712 270.1711 15.73216237  3722,6727.849,91.532,350.516,348.912,0.0
52111.0,STARLINK-3708,PAYLOAD,2022-04-07 20:00:01,15.73150869,0.0001409,53.2179,46.8863,95.095,241.2392,0.00072083,0.0010156,0.0,0 STARLINK-3708,1 52111U 22029Z   22097.83334491  .00101560  00000-0  72083-3 0  9996,2 52111  53.2179  46.8863 0001409  95.0950 241.2392 15.73150869  4345,6728.035,91.536,350.848,348.952,0.0
52111.0,STARLINK-3708,PAYLOAD,2022-04-07 22:00:00,15.73180837,0.0001404,53.2179,46.4746,94.6677,353.8825,0.00049963,0.00070028,0.0,0 STARLINK-3708,1 52111U 22029Z   22097.91667824  .00070028  00000-0  49963-3 0  9999,2 52111  53.2179  46.4746 0001404  94.6677 353.8825 15.73180837  3705,6727.95,91.534,350.759,348.87,0.0
52111.0,STARLINK-3708,PAYLOAD,2022-04-08 12:00:00,15.73311975,0.0001055,53.2173,43.5887,92.0259,62.1914,-0.00083405,-0.00116617,0.0,0 STARLINK-3708,1 52111U 22029Z   22098.50001157 -.00116617  00000-0 -83405-3 0  9992,2 52111  53.2173  43.5887 0001055  92.0259  62.1914 15.73311975  4454,6727.576,91.527,350.151,348.731,0.0
52111.0,STARLINK-3708,PAYLOAD,2022-04-08 14:00:03,15.73278445,0.0001007,53.2175,43.1757,97.2697,169.3441,-0.00053133,-0.00074776,0.0,0 STARLINK-3708,1 52111U 22029Z   22098.58336806 -.00074776  00000-0 -53133-3 0  9996,2 52111  53.2175  43.1757 0001007  97.2697 169.3441 15.73278445  3715,6727.672,91.529,350.214,348.8590000000001,0.0
52111.0,STARLINK-3708,PAYLOAD,2022-04-08 22:00:00,15.73240387,9.31e-05,53.2178,41.526,102.5489,252.8953,-0.00064069,-0.00089734,0.0,0 STARLINK-3708,1 52111U 22029Z   22098.91667824 -.00089734  00000-0 -64069-3 0  9990,2 52111  53.2178  41.5260 0000931 102.5489 252.8953 15.73240387  3702,6727.78,91.531,350.271,349.019,0.0
52111.0,STARLINK-3708,PAYLOAD,2022-04-09 04:00:00,15.73153623,9.7e-05,53.2177,40.2906,88.3553,243.7896,1.799e-05,1.901e-05,0.0,0 STARLINK-3708,1 52111U 22029Z   22099.16667824  .00001901  00000-0  17990-4 0  9998,2 52111  53.2177  40.2906 0000970  88.3553 243.7896 15.73153623  4555,6728.026999999999,91.536,350.545,349.24,0.0
52111.0,STARLINK-3708,PAYLOAD,2022-04-09 14:00:01,15.73123523,9.18e-05,53.2177,38.2272,96.8435,76.3927,0.00029888,0.00041395,0.0,0 STARLINK-3708,1 52111U 22029Z   22099.58334491  .00041395  00000-0  29888-3 0  9994,2 52111  53.2177  38.2272 0000918  96.8435  76.3927 15.73123523  3722,6728.113,91.538,350.596,349.361,0.0
52111.0,STARLINK-3708,PAYLOAD,2022-04-09 22:00:00,15.73187026,0.0001023,53.2176,36.5782,102.2618,159.8365,0.00039017,0.00054462,0.0,0 STARLINK-3708,1 52111U 22029Z   22099.91667824  .00054462  00000-0  39017-3 0  9994,2 52111  53.2176  36.5782 0001023 102.2618 159.8365 15.73187026  3711,6727.932,91.534,350.485,349.1090000000001,0.0
52111.0,STARLINK-3708,PAYLOAD,2022-04-10 04:00:00,15.73208819,0.0001038,53.2173,35.3427,89.9019,148.9056,0.0007004,0.00098877,0.0,0 STARLINK-3708,1 52111U 22029Z   22100.16667824  .00098877  00000-0  70040-3 0  9993,2 52111  53.2173  35.3427 0001038  89.9019 148.9056 15.73208819  4714,6727.87,91.533,350.43300000000005,349.037,0.0
